[{"OBJECT_NAME":"STARLINK-33997","OBJECT_ID":"2025-098C","EPOCH":"2026-03-09T22:20:46.078368","MEAN_MOTION":14.96551413,"ECCENTRICITY":0.00068477,"INCLINATION":70.0004,"RA_OF_ASC_NODE":274.0384,"ARG_OF_PERICENTER":77.5305,"MEAN_ANOMALY":282.6619,"EPHEMERIS_TYPE":0,"CLASSIFICATION_TYPE":"U","NORAD_CAT_ID":63928,"ELEMENT_SET_NO":999,"REV_AT_EPOCH":4660,"BSTAR":-0.062237161,"MEAN_MOTION_DOT":-0.00663337,"MEAN_MOTION_DDOT":0},{"OBJECT_NAME":"SCOUT X-4 R\/B","OBJECT_ID":"1965-101B","EPOCH":"2026-03-09T17:10:13.574496","MEAN_MOTION":14.9141233,"ECCENTRICITY":0.0006189,"INCLINATION":75.8427,"RA_OF_ASC_NODE":166.1466,"ARG_OF_PERICENTER":28.3515,"MEAN_ANOMALY":331.8013,"EPHEMERIS_TYPE":0,"CLASSIFICATION_TYPE":"U","NORAD_CAT_ID":1815,"ELEMENT_SET_NO":999,"REV_AT_EPOCH":5339,"BSTAR":0.00037236868,"MEAN_MOTION_DOT":3.702e-5,"MEAN_MOTION_DDOT":0}]
